{
  "norad_id": 62084,
  "name": "KINEIS-5A",
  "history": [
    {
      "epoch": "2026-03-28T21:08:52.285344Z",
      "apogee_km": 657.4189855285604,
      "perigee_km": 650.4777547014282,
      "latitude_deg": -1.0625695180211198e-05,
      "longitude_deg": 105.7088983309043,
      "height_km": 659.7986104552645,
      "semi_major_axis_km": 7032.0853701149945,
      "eccentricity": 0.00049354,
      "inclination_deg": 97.957,
      "raan_deg": 249.222,
      "arg_perigee_deg": 145.0646,
      "mean_anomaly_deg": 215.0886,
      "mean_motion_rev_day": 14.72233041
    },
    {
      "epoch": "2026-03-29T03:40:20.999712Z",
      "apogee_km": 657.4284150480953,
      "perigee_km": 650.4624341982635,
      "latitude_deg": 2.276765295976312e-05,
      "longitude_deg": 7.837292958435473,
      "height_km": 659.7861851315149,
      "semi_major_axis_km": 7032.082424623179,
      "eccentricity": 0.0004953,
      "inclination_deg": 97.9568,
      "raan_deg": 249.488,
      "arg_perigee_deg": 144.5074,
      "mean_anomaly_deg": 215.6464,
      "mean_motion_rev_day": 14.72233966
    },
    {
      "epoch": "2026-03-30T04:08:23.570592Z",
      "apogee_km": 657.4562704251548,
      "perigee_km": 650.4101360814939,
      "latitude_deg": -8.17660006182075e-05,
      "longitude_deg": 0.819956494617019,
      "height_km": 659.7181788848386,
      "semi_major_axis_km": 7032.070203253324,
      "eccentricity": 0.000501,
      "inclination_deg": 97.9558,
      "raan_deg": 250.4862,
      "arg_perigee_deg": 142.11,
      "mean_anomaly_deg": 218.046,
      "mean_motion_rev_day": 14.72237804
    },
    {
      "epoch": "2026-03-30T05:46:15.761280Z",
      "apogee_km": 657.4676337057808,
      "perigee_km": 650.3987154834704,
      "latitude_deg": 2.9973370793424464e-05,
      "longitude_deg": -23.64820968691566,
      "height_km": 659.7235722634641,
      "semi_major_axis_km": 7032.070174594625,
      "eccentricity": 0.00050262,
      "inclination_deg": 97.9558,
      "raan_deg": 250.5525,
      "arg_perigee_deg": 142.0172,
      "mean_anomaly_deg": 218.1391,
      "mean_motion_rev_day": 14.72237813
    },
    {
      "epoch": "2026-03-30T15:33:28.736064Z",
      "apogee_km": 657.6206324874638,
      "perigee_km": 650.2417426968605,
      "latitude_deg": -1.5990526707955415e-06,
      "longitude_deg": -170.45540166567392,
      "height_km": 659.8497110725684,
      "semi_major_axis_km": 7032.068187592162,
      "eccentricity": 0.00052466,
      "inclination_deg": 97.9531,
      "raan_deg": 250.9513,
      "arg_perigee_deg": 142.1712,
      "mean_anomaly_deg": 217.9865,
      "mean_motion_rev_day": 14.72238437
    },
    {
      "epoch": "2026-03-30T17:11:20.863680Z",
      "apogee_km": 657.6498891196998,
      "perigee_km": 650.2085566426467,
      "latitude_deg": 4.1575324731964443e-05,
      "longitude_deg": 165.07690520463618,
      "height_km": 659.855757035043,
      "semi_major_axis_km": 7032.0662228811725,
      "eccentricity": 0.0005291,
      "inclination_deg": 97.9534,
      "raan_deg": 251.0178,
      "arg_perigee_deg": 141.7582,
      "mean_anomaly_deg": 218.4002,
      "mean_motion_rev_day": 14.72239054
    },
    {
      "epoch": "2026-04-01T21:23:09.714624Z",
      "apogee_km": 657.7581789493433,
      "perigee_km": 650.0693346518583,
      "latitude_deg": 1.6715602348672912e-05,
      "longitude_deg": 102.10771525351612,
      "height_km": 659.7155548240235,
      "semi_major_axis_km": 7032.0507568006005,
      "eccentricity": 0.0005467,
      "inclination_deg": 97.952,
      "raan_deg": 253.1458,
      "arg_perigee_deg": 136.7117,
      "mean_anomaly_deg": 223.4521,
      "mean_motion_rev_day": 14.72243911
    },
    {
      "epoch": "2026-04-02T08:48:14.607936Z",
      "apogee_km": 657.7529851016843,
      "perigee_km": 650.0547286940036,
      "latitude_deg": 6.243581530712979e-05,
      "longitude_deg": -69.16620116996715,
      "height_km": 659.6556906542987,
      "semi_major_axis_km": 7032.040856897844,
      "eccentricity": 0.00054737,
      "inclination_deg": 97.9518,
      "raan_deg": 253.6112,
      "arg_perigee_deg": 135.5685,
      "mean_anomaly_deg": 224.5963,
      "mean_motion_rev_day": 14.7224702
    },
    {
      "epoch": "2026-04-03T12:32:00.577824Z",
      "apogee_km": 657.812209239286,
      "perigee_km": 649.9630633402603,
      "latitude_deg": -7.724345843571588e-05,
      "longitude_deg": -125.11713003712043,
      "height_km": 659.5749476271816,
      "semi_major_axis_km": 7032.024636289773,
      "eccentricity": 0.0005581,
      "inclination_deg": 97.9508,
      "raan_deg": 254.7406,
      "arg_perigee_deg": 133.1595,
      "mean_anomaly_deg": 227.0079,
      "mean_motion_rev_day": 14.72252114
    },
    {
      "epoch": "2026-04-04T21:09:22.591008Z",
      "apogee_km": 657.8987690302574,
      "perigee_km": 649.855551233898,
      "latitude_deg": -2.6257054997399585e-05,
      "longitude_deg": 105.53027037903183,
      "height_km": 659.4644381165604,
      "semi_major_axis_km": 7032.014160132077,
      "eccentricity": 0.0005719,
      "inclination_deg": 97.9498,
      "raan_deg": 256.0695,
      "arg_perigee_deg": 130.0018,
      "mean_anomaly_deg": 230.1692,
      "mean_motion_rev_day": 14.72255404
    },
    {
      "epoch": "2026-04-05T13:28:03.446400Z",
      "apogee_km": 658.0596388284202,
      "perigee_km": 649.6710226080604,
      "latitude_deg": -1.8031617575184858e-06,
      "longitude_deg": -139.14504822385558,
      "height_km": 659.5548478034297,
      "semi_major_axis_km": 7032.00233071824,
      "eccentricity": 0.00059646,
      "inclination_deg": 97.9478,
      "raan_deg": 256.7343,
      "arg_perigee_deg": 129.8515,
      "mean_anomaly_deg": 230.3218,
      "mean_motion_rev_day": 14.72259119
    },
    {
      "epoch": "2026-04-05T19:59:31.771104Z",
      "apogee_km": 658.0539745730894,
      "perigee_km": 649.6788585039922,
      "latitude_deg": -1.5910009283740945e-06,
      "longitude_deg": 122.98497854339118,
      "height_km": 659.5154546029302,
      "semi_major_axis_km": 7032.0034165385405,
      "eccentricity": 0.0005955,
      "inclination_deg": 97.9474,
      "raan_deg": 257.0003,
      "arg_perigee_deg": 129.2114,
      "mean_anomaly_deg": 230.9623,
      "mean_motion_rev_day": 14.72258778
    },
    {
      "epoch": "2026-04-06T05:46:44.236992Z",
      "apogee_km": 658.0664040972761,
      "perigee_km": 649.6631619665523,
      "latitude_deg": 5.892141232944348e-05,
      "longitude_deg": -23.82020138821634,
      "height_km": 659.4719130681561,
      "semi_major_axis_km": 7032.001783031914,
      "eccentricity": 0.0005975,
      "inclination_deg": 97.9472,
      "raan_deg": 257.399,
      "arg_perigee_deg": 128.3259,
      "mean_anomaly_deg": 231.8487,
      "mean_motion_rev_day": 14.72259291
    },
    {
      "epoch": "2026-04-07T12:46:13.578240Z",
      "apogee_km": 658.117862027003,
      "perigee_km": 649.5919937339622,
      "latitude_deg": -5.049673400605676e-05,
      "longitude_deg": -128.70291984885617,
      "height_km": 659.3339469385463,
      "semi_major_axis_km": 7031.991927880482,
      "eccentricity": 0.00060622,
      "inclination_deg": 97.9468,
      "raan_deg": 258.6613,
      "arg_perigee_deg": 125.5409,
      "mean_anomaly_deg": 234.6364,
      "mean_motion_rev_day": 14.72262386
    },
    {
      "epoch": "2026-04-07T20:55:33.927744Z",
      "apogee_km": 658.1332208120666,
      "perigee_km": 649.5724763703929,
      "latitude_deg": 3.580048406851798e-05,
      "longitude_deg": 108.95943682106193,
      "height_km": 659.2909697322514,
      "semi_major_axis_km": 7031.98984859123,
      "eccentricity": 0.0006087,
      "inclination_deg": 97.9466,
      "raan_deg": 258.9934,
      "arg_perigee_deg": 124.7085,
      "mean_anomaly_deg": 235.4697,
      "mean_motion_rev_day": 14.72263039
    },
    {
      "epoch": "2026-04-08T14:52:06.595392Z",
      "apogee_km": 658.1599233472971,
      "perigee_km": 649.5396919992436,
      "latitude_deg": 2.4145108268739714e-05,
      "longitude_deg": -160.18264754915407,
      "height_km": 659.2026901649641,
      "semi_major_axis_km": 7031.98680767327,
      "eccentricity": 0.00061293,
      "inclination_deg": 97.9463,
      "raan_deg": 259.7243,
      "arg_perigee_deg": 123.0769,
      "mean_anomaly_deg": 237.1028,
      "mean_motion_rev_day": 14.72263994
    },
    {
      "epoch": "2026-04-09T15:20:07.395072Z",
      "apogee_km": 658.1654764175391,
      "perigee_km": 649.5175492424614,
      "latitude_deg": 2.593356627546125e-05,
      "longitude_deg": -167.1949022488958,
      "height_km": 659.0421757796682,
      "semi_major_axis_km": 7031.97851283,
      "eccentricity": 0.0006149,
      "inclination_deg": 97.9455,
      "raan_deg": 260.7202,
      "arg_perigee_deg": 120.5902,
      "mean_anomaly_deg": 239.5913,
      "mean_motion_rev_day": 14.72266599
    },
    {
      "epoch": "2026-04-10T07:38:47.825376Z",
      "apogee_km": 658.3228661353978,
      "perigee_km": 649.3513329397256,
      "latitude_deg": 6.714260934295263e-05,
      "longitude_deg": -51.869047815928965,
      "height_km": 659.100340452736,
      "semi_major_axis_km": 7031.974099537561,
      "eccentricity": 0.00063791,
      "inclination_deg": 97.943,
      "raan_deg": 261.3844,
      "arg_perigee_deg": 120.3033,
      "mean_anomaly_deg": 239.8807,
      "mean_motion_rev_day": 14.72267985
    },
    {
      "epoch": "2026-04-11T21:09:44.782848Z",
      "apogee_km": 658.3673795039977,
      "perigee_km": 649.2961398040443,
      "latitude_deg": -3.1117607217569986e-06,
      "longitude_deg": 105.38041609288275,
      "height_km": 658.8741253756623,
      "semi_major_axis_km": 7031.968759654021,
      "eccentricity": 0.000645,
      "inclination_deg": 97.9426,
      "raan_deg": 262.9119,
      "arg_perigee_deg": 116.7734,
      "mean_anomaly_deg": 243.4134,
      "mean_motion_rev_day": 14.72269662
    },
    {
      "epoch": "2026-04-13T17:12:09.752256Z",
      "apogee_km": 658.4493131594736,
      "perigee_km": 649.2050930180931,
      "latitude_deg": -5.678647577080505e-05,
      "longitude_deg": 164.76051447772733,
      "height_km": 658.6295898125853,
      "semi_major_axis_km": 7031.964203088783,
      "eccentricity": 0.0006573,
      "inclination_deg": 97.9418,
      "raan_deg": 264.7047,
      "arg_perigee_deg": 112.9709,
      "mean_anomaly_deg": 247.2192,
      "mean_motion_rev_day": 14.72271093
    },
    {
      "epoch": "2026-04-14T20:55:54.236064Z",
      "apogee_km": 658.5789108537956,
      "perigee_km": 649.0702923760928,
      "latitude_deg": -6.968204866589232e-05,
      "longitude_deg": 108.81487802496213,
      "height_km": 658.6148795301933,
      "semi_major_axis_km": 7031.961601614944,
      "eccentricity": 0.0006761,
      "inclination_deg": 97.9389,
      "raan_deg": 265.8332,
      "arg_perigee_deg": 112.1449,
      "mean_anomaly_deg": 248.0476,
      "mean_motion_rev_day": 14.7227191
    }
  ]
}